NORAD_CAT_ID,OBJECT_NAME,OBJECT_TYPE,EPOCH,MEAN_MOTION,ECCENTRICITY,INCLINATION,RA_OF_ASC_NODE,ARG_OF_PERICENTER,MEAN_ANOMALY,BSTAR,MEAN_MOTION_DOT,MEAN_MOTION_DDOT,TLE_LINE0,TLE_LINE1,TLE_LINE2,SEMIMAJOR_AXIS,PERIOD,APOGEE,PERIGEE,DECAYED
52342.0,STARLINK-3850,PAYLOAD,2023-06-27 15:58:57,15.08846317,8.65e-05,53.2164,305.5636,94.2199,265.8892,0.00021935,3.206e-05,0.0,0 STARLINK-3850,1 52342U 22045M   23178.66593779  .00003206  00000-0  21935-3 0  9996,2 52342  53.2164 305.5636 0000865  94.2199 265.8892 15.08846317 66926,6917.861,95.437,540.324,539.128,0.0
52342.0,STARLINK-3850,PAYLOAD,2023-06-28 07:52:48,15.08841533,9.73e-05,53.2161,302.5926,102.4396,257.6705,0.00015679,2.209e-05,0.0,0 STARLINK-3850,1 52342U 22045M   23179.32834038  .00002209  00000-0  15679-3 0  9996,2 52342  53.2161 302.5926 0000973 102.4396 257.6705 15.08841533 67022,6917.876,95.437,540.414,539.068,0.0
52342.0,STARLINK-3850,PAYLOAD,2023-06-29 07:43:35,15.08839134,9.41e-05,53.2171,298.1294,94.72,265.39,4.7378e-05,4.66e-06,0.0,0 STARLINK-3850,1 52342U 22045M   23180.32194314  .00000466  00000-0  47378-4 0  9999,2 52342  53.2171 298.1294 0000941  94.7200 265.3900 15.08839134 67176,6917.883,95.438,540.399,539.097,0.0
52342.0,STARLINK-3850,PAYLOAD,2023-06-30 13:55:54,15.08850702,8.92e-05,53.2169,292.4788,95.7512,264.3582,0.00020335,2.951e-05,0.0,0 STARLINK-3850,1 52342U 22045M   23181.58049685  .00002951  00000-0  20335-3 0  9992,2 52342  53.2169 292.4788 0000892  95.7512 264.3582 15.08850702 67360,6917.848,95.437,540.33,539.096,0.0
52342.0,STARLINK-3850,PAYLOAD,2023-07-01 07:25:10,15.08833357,9.9e-05,53.2161,289.2085,88.4363,271.6743,-5.5381e-06,-3.76e-06,0.0,0 STARLINK-3850,1 52342U 22045M   23182.30914506 -.00000376  00000-0 -55381-5 0  9998,2 52342  53.2161 289.2085 0000990  88.4363 271.6743 15.08833357 67477,6917.901,95.438,540.451,539.081,0.0
52342.0,STARLINK-3850,PAYLOAD,2023-07-02 10:26:43,15.0883723,7.92e-05,53.2165,284.1527,90.5089,269.5993,-4.7099e-05,-1.037e-05,0.0,0 STARLINK-3850,1 52342U 22045M   23183.43522471 -.00001037  00000-0 -47099-4 0  9990,2 52342  53.2165 284.1527 0000792  90.5089 269.5993 15.08837230 67641,6917.889,95.438,540.302,539.206,0.0
52342.0,STARLINK-3850,PAYLOAD,2023-07-03 11:52:53,15.08841754,7.88e-05,53.2165,279.3958,94.3103,265.7979,0.00020303,2.945e-05,0.0,0 STARLINK-3850,1 52342U 22045M   23184.49506341  .00002945  00000-0  20303-3 0  9990,2 52342  53.2165 279.3958 0000788  94.3103 265.7979 15.08841754 67805,6917.875,95.437,540.285,539.195,0.0
52342.0,STARLINK-3850,PAYLOAD,2023-07-03 18:14:25,15.08850618,7.94e-05,53.2165,278.2062,91.9934,268.1149,0.00026788,3.979e-05,0.0,0 STARLINK-3850,1 52342U 22045M   23184.76001825  .00003979  00000-0  26788-3 0  9998,2 52342  53.2165 278.2062 0000794  91.9934 268.1149 15.08850618 67840,6917.848,95.437,540.262,539.164,0.0
52342.0,STARLINK-3850,PAYLOAD,2023-07-04 11:43:40,15.08838861,8.75e-05,53.2164,274.9357,106.7621,253.3467,2.4896e-05,1.09e-06,0.0,0 STARLINK-3850,1 52342U 22045M   23185.48866579  .00000109  00000-0  24896-4 0  9994,2 52342  53.2164 274.9357 0000875 106.7621 253.3467 15.08838861 67954,6917.884,95.438,540.354,539.144,0.0
52342.0,STARLINK-3850,PAYLOAD,2023-07-05 14:45:14,15.08840903,7.49e-05,53.2156,269.8805,92.3556,267.7522,0.00020195,2.928e-05,0.0,0 STARLINK-3850,1 52342U 22045M   23186.61474675  .00002928  00000-0  20195-3 0  9990,2 52342  53.2156 269.8805 0000749  92.3556 267.7522 15.08840903 68124,6917.878,95.437,540.261,539.224,0.0
52342.0,STARLINK-3850,PAYLOAD,2023-07-07 04:54:29,15.08845958,7.92e-05,53.2154,262.7442,82.0807,278.0275,0.0002356,3.464e-05,0.0,0 STARLINK-3850,1 52342U 22045M   23188.20450662  .00003464  00000-0  23560-3 0  9992,2 52342  53.2154 262.7442 0000792  82.0807 278.0275 15.08845958 68365,6917.862,95.437,540.275,539.179,0.0
52342.0,STARLINK-3850,PAYLOAD,2023-07-08 07:56:02,15.08841797,6.17e-05,53.2152,257.6879,101.3315,258.7746,8.502e-05,1.066e-05,0.0,0 STARLINK-3850,1 52342U 22045M   23189.33058556  .00001066  00000-0  85020-4 0  9999,2 52342  53.2152 257.6879 0000617 101.3315 258.7746 15.08841797 68539,6917.875,95.437,540.167,539.313,0.0
52342.0,STARLINK-3850,PAYLOAD,2023-07-09 04:36:03,15.08834213,7.52e-05,53.2149,253.8214,109.4924,250.6149,-3.3044e-05,-8.13e-06,0.0,0 STARLINK-3850,1 52342U 22045M   23190.19170983 -.00000813  00000-0 -33044-4 0  9994,2 52342  53.2149 253.8214 0000752 109.4924 250.6149 15.08834213 68668,6917.898,95.438,540.283,539.243,0.0
52342.0,STARLINK-3850,PAYLOAD,2023-07-10 10:48:23,15.08840427,6.92e-05,53.2158,248.1726,83.3832,276.7239,0.00010611,1.402e-05,0.0,0 STARLINK-3850,1 52342U 22045M   23191.45026742  .00001402  00000-0  10611-3 0  9994,2 52342  53.2158 248.1726 0000692  83.3832 276.7239 15.08840427 68858,6917.879,95.438,540.223,539.265,0.0
52342.0,STARLINK-3850,PAYLOAD,2023-07-11 02:42:14,15.08834973,7.82e-05,53.2163,245.1993,83.7461,276.362,0.00011074,1.475e-05,0.0,0 STARLINK-3850,1 52342U 22045M   23192.11267207  .00001475  00000-0  11074-3 0  9995,2 52342  53.2163 245.1993 0000782  83.7461 276.3620 15.08834973 68959,6917.896,95.438,540.302,539.22,0.0
52342.0,STARLINK-3850,PAYLOAD,2023-07-12 04:08:25,15.08839397,8.39e-05,53.2162,240.4411,86.7655,273.3433,2.931e-05,1.79e-06,0.0,0 STARLINK-3850,1 52342U 22045M   23193.17251444  .00000179  00000-0  29310-4 0  9991,2 52342  53.2162 240.4411 0000839  86.7655 273.3433 15.08839397 69115,6917.882,95.438,540.328,539.167,0.0
52342.0,STARLINK-3850,PAYLOAD,2023-07-12 13:40:43,15.08844037,0.0001278,53.2163,238.6569,103.7421,256.3713,9.4384e-05,1.215e-05,0.0,0 STARLINK-3850,1 52342U 22045M   23193.56994962  .00001215  00000-0  94384-4 0  9998,2 52342  53.2163 238.6569 0001278 103.7421 256.3713 15.08844037 69173,6917.868,95.437,540.617,538.849,0.0
52342.0,STARLINK-3850,PAYLOAD,2023-07-13 11:56:07,15.08839403,8.3e-05,53.216,234.4925,89.854,270.2548,4.4611e-05,4.22e-06,0.0,0 STARLINK-3850,1 52342U 22045M   23194.49731457  .00000422  00000-0  44611-4 0  9996,2 52342  53.2160 234.4925 0000830  89.8540 270.2548 15.08839403 69317,6917.882,95.438,540.321,539.173,0.0
52342.0,STARLINK-3850,PAYLOAD,2023-07-14 02:14:36,15.08834037,8.99e-05,53.2158,231.8157,84.5449,275.5646,1.8376e-05,5e-08,0.0,0 STARLINK-3850,1 52342U 22045M   23195.09348035  .00000005  00000-0  18376-4 0  9995,2 52342  53.2158 231.8157 0000899  84.5449 275.5646 15.08834037 69402,6917.899,95.438,540.386,539.142,0.0
52342.0,STARLINK-3850,PAYLOAD,2023-07-15 02:05:23,15.0884292,8.41e-05,53.2159,227.3556,80.2974,279.8113,0.0001175,1.583e-05,0.0,0 STARLINK-3850,1 52342U 22045M   23196.08707268  .00001583  00000-0  11750-3 0  9992,2 52342  53.2159 227.3556 0000841  80.2974 279.8113 15.08842920 69551,6917.871,95.437,540.318,539.155,0.0
52342.0,STARLINK-3850,PAYLOAD,2023-07-16 08:17:43,15.0883551,8.65e-05,53.2158,221.7062,79.6583,280.4506,5.5155e-05,5.9e-06,0.0,0 STARLINK-3850,1 52342U 22045M   23197.34563942  .00000590  00000-0  55155-4 0  9996,2 52342  53.2158 221.7062 0000865  79.6583 280.4506 15.08835510 69746,6917.894,95.438,540.358,539.161,0.0
52342.0,STARLINK-3850,PAYLOAD,2023-07-17 01:46:57,15.08843777,9.04e-05,53.2162,218.4348,85.3203,274.7892,-1.0587e-05,-4.56e-06,0.0,0 STARLINK-3850,1 52342U 22045M   23198.07427618 -.00000456  00000-0 -10587-4 0  9999,2 52342  53.2162 218.4348 0000904  85.3203 274.7892 15.08843777 69858,6917.869,95.437,540.359,539.108,0.0
52342.0,STARLINK-3850,PAYLOAD,2023-07-18 00:02:21,15.08835403,8.44e-05,53.2163,214.2726,79.5412,280.5675,6.9766e-05,8.23e-06,0.0,0 STARLINK-3850,1 52342U 22045M   23199.00163835  .00000823  00000-0  69766-4 0  9990,2 52342  53.2163 214.2726 0000844  79.5412 280.5675 15.08835403 69999,6917.894,95.438,540.343,539.176,0.0
52342.0,STARLINK-3850,PAYLOAD,2023-07-19 01:28:31,15.08837904,8.45e-05,53.2158,209.5141,76.5513,283.5573,2.2284e-05,6.7e-07,0.0,0 STARLINK-3850,1 52342U 22045M   23200.06148083  .00000067  00000-0  22284-4 0  9991,2 52342  53.2158 209.5141 0000845  76.5513 283.5573 15.08837904 70159,6917.887,95.438,540.336,539.167,0.0
52342.0,STARLINK-3850,PAYLOAD,2023-07-20 23:34:43,15.08836005,9.31e-05,53.216,200.89,80.2331,279.8766,3.2692e-05,2.33e-06,0.0,0 STARLINK-3850,1 52342U 22045M   23201.98244539  .00000233  00000-0  32692-4 0  9995,2 52342  53.2160 200.8900 0000931  80.2331 279.8766 15.08836005 70440,6917.893,95.438,540.402,539.114,0.0
52342.0,STARLINK-3850,PAYLOAD,2023-07-24 08:39:23,15.08838481,9.45e-05,53.2156,185.7232,99.8122,260.2977,-1.7626e-05,-5.68e-06,0.0,0 STARLINK-3850,1 52342U 22045M   23205.36068455 -.00000568  00000-0 -17626-4 0  9995,2 52342  53.2156 185.7232 0000945  99.8122 260.2977 15.08838481 70957,6917.885,95.438,540.404,539.096,0.0
52342.0,STARLINK-3850,PAYLOAD,2023-07-25 10:05:33,15.08841001,0.0001082,53.2161,180.9678,74.3682,285.743,3.71e-05,3.03e-06,0.0,0 STARLINK-3850,1 52342U 22045M   23206.42052424  .00000303  00000-0  37100-4 0  9996,2 52342  53.2161 180.9678 0001082  74.3682 285.7430 15.08841001 71113,6917.877,95.437,540.491,538.994,0.0
52342.0,STARLINK-3850,PAYLOAD,2023-07-26 09:56:20,15.08838813,0.0001493,53.2125,176.5092,84.9889,275.1273,9.205e-05,1.177e-05,0.0,0 STARLINK-3850,1 52342U 22045M   23207.41412699  .00001177  00000-0  92050-4 0  9995,2 52342  53.2125 176.5092 0001493  84.9889 275.1273 15.08838813 71267,6917.884,95.438,540.782,538.716,0.0
52342.0,STARLINK-3850,PAYLOAD,2023-07-26 22:39:25,15.08836193,0.0001589,53.2176,174.1231,115.2721,244.8436,7.1437e-05,8.49e-06,0.0,0 STARLINK-3850,1 52342U 22045M   23207.94404830  .00000849  00000-0  71437-4 0  9992,2 52342  53.2176 174.1231 0001589 115.2721 244.8436 15.08836193 71343,6917.892,95.438,540.856,538.658,0.0
52342.0,STARLINK-3850,PAYLOAD,2023-07-27 00:14:49,15.08836846,0.0001315,53.2159,173.8298,102.2173,257.8966,3.0898e-05,2.04e-06,0.0,0 STARLINK-3850,1 52342U 22045M   23208.01029000  .00000204  00000-0  30898-4 0  9994,2 52342  53.2159 173.8298 0001315 102.2173 257.8966 15.08836846 71355,6917.89,95.438,540.665,538.845,0.0
